LUDI TANCE 1-01A (L-SA*)
1 51284U 22007A   26181.55928193  .00000627  00000+0  73517-4 0  9992
2 51284  97.8099 188.7891 0001601  89.5547 270.5853 14.88423060240464
LUDI TANCE 1-01B (L-SA*)
1 51822U 22018A   26181.59290060  .00000612  00000+0  71918-4 0  9998
2 51822  97.8104 188.8196 0001598  91.0198 269.1202 14.88414640235700
2022-023F               
1 51951U 22023F   26181.58353082  .00005485  00000+0  22414-3 0  9999
2 51951  63.4437 227.9383 0131799 341.9796  17.6666 15.17955320239748
MERIDIAN 10             
1 52145U 22030A   26180.43169381  .00000154  00000+0  00000+0 0  9994
2 52145  62.6792 139.4650 6787270 272.8510  17.6292  2.00612153 31271
OMNI-L1                 
1 52157U 22033A   26181.20300561  .00001804  00000+0  22952-3 0  9990
2 52157  97.8397 260.1275 0004158 230.4177 129.6670 14.82795325229381
ENMAP                   
1 52159U 22033C   26181.52966979  .00000793  00000+0  12556-3 0  9993
2 52159  97.9800 263.5904 0001499  75.1291 285.0084 14.74931396228628
ARCSAT-1                
1 52161U 22033E   26181.19924181  .00011698  00000+0  18283-3 0  9997
2 52161  97.2763 273.6675 0005948 138.5925 221.5781 15.53925081237722
GLOBAL-18               
1 52196U 22034B   26181.50291632  .00015999  00000+0  32267-3 0  9995
2 52196  52.9789 192.9774 0003831 338.7712  21.3134 15.46719227239024
GAOFEN-3 03             
1 52200U 22035A   26181.55025098  .00000083  00000+0  38521-4 0  9996
2 52200  98.4056 189.9365 0001567  96.9156 263.2212 14.42216889222772
DAQI-1                  
1 52257U 22039A   26181.59935863 -.00000036  00000+0  19809-5 0  9994
2 52257  98.1487 120.1744 0002849 193.3996 166.7127 14.57683912223892
BRO-6                   
1 52422U 22047AE  26181.55749645  .00037806  00000+0  64025-3 0  9996
2 52422  97.3406 272.8766 0003849  28.0954 332.0505 15.51449927233223
JILIN-1 GAOFEN 3D27     
1 52444U 22048B   26181.54482974  .00142419  00000+0  80686-3 0  9997
2 52444  97.5726 296.7235 0002884 284.3273  75.7673 15.78659418231580
JILIN-1 GAOFEN 3D28     
1 52445U 22048C   26181.57893739  .00176091  00000+0  83705-3 0  9994
2 52445  97.5663 296.9717 0002582 262.4678  97.6297 15.82428860231641
VIGORIDE-3              
1 52760U 22057AE  26181.38521349  .00005318  00000+0  20087-3 0  9995
2 52760  97.6622 321.7107 0009670  80.6545 279.5787 15.27413361227172
ION SCV-006             
1 52761U 22057AF  26181.37380477  .00011632  00000+0  24222-3 0  9991
2 52761  97.6114 330.6311 0017968  69.0514 291.2655 15.45600033228159
SHERPA-AC1              
1 52763U 22057AH  26181.41883457  .00007206  00000+0  20493-3 0  9992
2 52763  97.6699 331.1985 0008437  53.0364 307.1651 15.36444645227730
OMNI-L2                 
1 52771U 22057AR  26181.56417767  .00001394  00000+0  18433-3 0  9997
2 52771  97.4710 243.0236 0005092 282.0260  78.0383 14.81404483222370
STEP CUBE LAB-II        
1 52897U 22065D   26181.60652199  .00000817  00000+0  16761-3 0  9991
2 52897  98.2239 325.4673 0008382 352.3400   7.7673 14.63323529213468
RANDEV                  
1 52898U 22065E   26181.60404771  .00000735  00000+0  15049-3 0  9990
2 52898  98.2224 325.8224 0007742 353.4992   6.6109 14.63711284213210
SNUGLITE-II             
1 52899U 22065F   26181.35537677  .00000965  00000+0  19174-3 0  9993
2 52899  98.2217 326.1635 0007094 352.7825   7.3274 14.64371015212923
MIMAN                   
1 52900U 22065G   26181.39546979  .00000559  00000+0  12137-3 0  9996
2 52900  98.2277 323.8123 0007313 354.9272   5.1854 14.61857617212375
STARLINK-4362           
1 53043U 22077A   26181.49083610 -.00001485  00000+0 -99017-4 0  9991
2 53043  97.2939 359.7573 0001967  82.9111 277.2340 15.05661044217883
LARES-2                 
1 53105U 22080A   26177.40365794 -.00000028  00000+0  00000+0 0  9996
2 53105  70.1592 302.1681 0005264 334.1364  25.8897  6.38965133 92253
GREENCUBE (IO-117)      
1 53109U 22080E   26179.70139334 -.00000003  00000+0  00000+0 0  9997
2 53109  70.1440 294.2410 0008987 287.1341  72.8335  6.42583249 92806
STARLINK-4410           
1 53204U 22084R   26181.58334491  .00142731  00000+0  38042-2 0  9991
2 53204  97.5998 243.0632 0001214  80.9097 281.5447 15.37591495  5841
COSMOS 2558             
1 53323U 22089A   26180.46135440  .00119145  00000+0  70395-3 0  9998
2 53323  97.2261 285.0471 0002419 244.7746 115.3270 15.77783377219761
TECMS                   
1 53346U 22090A   26181.57586685  .00003720  00000+0  16833-3 0  9997
2 53346  97.3135 249.3067 0004668 137.3447 222.8152 15.21496658216845
