OBJECT_NAME,OBJECT_ID,EPOCH,MEAN_MOTION,ECCENTRICITY,INCLINATION,RA_OF_ASC_NODE,ARG_OF_PERICENTER,MEAN_ANOMALY,EPHEMERIS_TYPE,CLASSIFICATION_TYPE,NORAD_CAT_ID,ELEMENT_SET_NO,REV_AT_EPOCH,BSTAR,MEAN_MOTION_DOT,MEAN_MOTION_DDOT
LUDI TANCE 1-01A (L-SAR 01A),2022-007A,2026-06-30T13:25:21.958752,14.88423060,.00016018,97.8099,188.7891,89.5547,270.5853,0,U,51284,999,24046,.73516738E-4,.627E-5,0
LUDI TANCE 1-01B (L-SAR 01B),2022-018A,2026-06-30T14:13:46.611840,14.88414640,.0001598,97.8104,188.8196,91.0198,269.1202,0,U,51822,999,23570,.71917767E-4,.612E-5,0
2022-023F,2022-023F,2026-06-30T14:00:17.062848,15.17955320,.01317995,63.4437,227.9383,341.9796,17.6666,0,U,51951,999,23974,.22414133E-3,.5485E-4,0
MERIDIAN 10,2022-030A,2026-06-29T10:21:38.345184,2.00612153,.67872702,62.6792,139.4650,272.8510,17.6292,0,U,52145,999,3127,0,.154E-5,0
OMNI-L1,2022-033A,2026-06-30T04:52:19.684704,14.82795325,.00041584,97.8397,260.1275,230.4177,129.6670,0,U,52157,999,22938,.22952095E-3,.1804E-4,0
ENMAP,2022-033C,2026-06-30T12:42:43.469856,14.74931396,.00014998,97.9800,263.5904,75.1291,285.0084,0,U,52159,999,22862,.12555517E-3,.793E-5,0
ARCSAT-1,2022-033E,2026-06-30T04:46:54.492384,15.53925081,.0005948,97.2763,273.6675,138.5925,221.5781,0,U,52161,999,23772,.18282854E-3,.11698E-3,0
GLOBAL-18,2022-034B,2026-06-30T12:04:11.970048,15.46719227,.00038317,52.9789,192.9774,338.7712,21.3134,0,U,52196,999,23902,.32267377E-3,.15999E-3,0
GAOFEN-3 03,2022-035A,2026-06-30T13:12:21.684672,14.42216889,.00015673,98.4056,189.9365,96.9156,263.2212,0,U,52200,999,22277,.38521377E-4,.83E-6,0
DAQI-1,2022-039A,2026-06-30T14:23:04.585632,14.57683912,.00028492,98.1487,120.1744,193.3996,166.7127,0,U,52257,999,22389,.1980872E-5,-.36E-6,0
BRO-6,2022-047AE,2026-06-30T13:22:47.693280,15.51449927,.00038492,97.3406,272.8766,28.0954,332.0505,0,U,52422,999,23322,.64025029E-3,.37806E-3,0
JILIN-1 GAOFEN 3D27,2022-048B,2026-06-30T13:04:33.289536,15.78659418,.0002884,97.5726,296.7235,284.3273,75.7673,0,U,52444,999,23158,.80685941E-3,.142419E-2,0
JILIN-1 GAOFEN 3D28,2022-048C,2026-06-30T13:53:40.190496,15.82428860,.00025824,97.5663,296.9717,262.4678,97.6297,0,U,52445,999,23164,.83704649E-3,.176091E-2,0
VIGORIDE-3,2022-057AE,2026-06-30T09:14:42.445536,15.27413361,.00096707,97.6622,321.7107,80.6545,279.5787,0,U,52760,999,22717,.20087284E-3,.5318E-4,0
ION SCV-006,2022-057AF,2026-06-30T08:58:16.732128,15.45600033,.00179685,97.6114,330.6311,69.0514,291.2655,0,U,52761,999,22815,.24221939E-3,.11632E-3,0
SHERPA-AC1,2022-057AH,2026-06-30T10:03:07.306848,15.36444645,.00084375,97.6699,331.1985,53.0364,307.1651,0,U,52763,999,22773,.20492823E-3,.7206E-4,0
OMNI-L2,2022-057AR,2026-06-30T13:32:24.950688,14.81404483,.00050926,97.4710,243.0236,282.0260,78.0383,0,U,52771,999,22237,.18432891E-3,.1394E-4,0
STEP CUBE LAB-II,2022-065D,2026-06-30T14:33:23.499936,14.63323529,.00083821,98.2239,325.4673,352.3400,7.7673,0,U,52897,999,21346,.16760545E-3,.817E-5,0
RANDEV,2022-065E,2026-06-30T14:29:49.722144,14.63711284,.0007742,98.2224,325.8224,353.4992,6.6109,0,U,52898,999,21321,.15048819E-3,.735E-5,0
SNUGLITE-II,2022-065F,2026-06-30T08:31:44.552928,14.64371015,.00070942,98.2217,326.1635,352.7825,7.3274,0,U,52899,999,21292,.19173526E-3,.965E-5,0
MIMAN,2022-065G,2026-06-30T09:29:28.589856,14.61857617,.00073137,98.2277,323.8123,354.9272,5.1854,0,U,52900,999,21237,.12137433E-3,.559E-5,0
STARLINK-4362,2022-077A,2026-06-30T11:46:48.239040,15.05661044,.00019672,97.2939,359.7573,82.9111,277.2340,0,U,53043,999,21788,-.99016867E-4,-.1485E-4,0
LARES-2,2022-080A,2026-06-26T09:41:16.046016,6.38965133,.0005264,70.1592,302.1681,334.1364,25.8897,0,U,53105,999,9225,0,-.28E-6,0
GREENCUBE (IO-117),2022-080E,2026-06-28T16:50:00.384576,6.42583249,.00089876,70.1440,294.2410,287.1341,72.8335,0,U,53109,999,9280,0,-.3E-7,0
STARLINK-4410,2022-084R,2026-06-30T14:00:01.000224,15.37591495,.00012147,97.5998,243.0632,80.9097,281.5447,0,U,53204,999,584,.38041652E-2,.142731E-2,0
COSMOS 2558,2022-089A,2026-06-29T11:04:21.020160,15.77783377,.0002419,97.2261,285.0471,244.7746,115.3270,0,U,53323,999,21976,.70395E-3,.119145E-2,0
TECMS,2022-090A,2026-06-30T13:49:14.895840,15.21496658,.00046685,97.3135,249.3067,137.3447,222.8152,0,U,53346,999,21684,.16833332E-3,.372E-4,0
